{"type": "FeatureCollection", "features": [ {"type": "Feature", "properties": {"norad_id": 31716, "name": "FENGYUN 1C DEB", "group": "fengyun-1c-debris", "lat": -51.98309467388853, "lon": -89.07431487594452, "alt_km": 906.8080593150316, "timestamp": "2025-12-27T17:24:57.689060+00:00", "meta": {"OBJECT_NAME": "FENGYUN 1C DEB", "OBJECT_ID": "1999-025CDP", "EPOCH": "2025-12-27T04:41:28.017888", "MEAN_MOTION": 14.03678695, "ECCENTRICITY": 0.01311246, "INCLINATION": 98.5536, "RA_OF_ASC_NODE": 259.327, "ARG_OF_PERICENTER": 50.8913, "MEAN_ANOMALY": 100.0787, "EPHEMERIS_TYPE": 0, "CLASSIFICATION_TYPE": "U", "NORAD_CAT_ID": 31716, "ELEMENT_SET_NO": 999, "REV_AT_EPOCH": 94322, "BSTAR": 0.0019574994, "MEAN_MOTION_DOT": 3.282e-05, "MEAN_MOTION_DDOT": 0}, "tle": {"line1": "1 31716U 99025CDP 25361.19546317  .00003282  00000+0  19575-2 0  9999", "line2": "2 31716  98.5536 259.3270 0131124  50.8913 100.0787 14.03678695943224"}}, "geometry": {"type": "Point", "coordinates": [-89.07431487594452, -51.98309467388853]}}, {"type": "Feature", "properties": {"norad_id": 31720, "name": "FENGYUN 1C DEB", "group": "fengyun-1c-debris", "lat": 3.0133233622873488, "lon": 95.79794970517808, "alt_km": 668.198482998323, "timestamp": "2025-12-27T17:24:57.689070+00:00", "meta": {"OBJECT_NAME": "FENGYUN 1C DEB", "OBJECT_ID": "1999-025CDT", "EPOCH": "2025-12-24T16:50:31.302816", "MEAN_MOTION": 14.719334, "ECCENTRICITY": 0.01003361, "INCLINATION": 99.0481, "RA_OF_ASC_NODE": 271.9563, "ARG_OF_PERICENTER": 86.8005, "MEAN_ANOMALY": 274.4673, "EPHEMERIS_TYPE": 0, "CLASSIFICATION_TYPE": "U", "NORAD_CAT_ID": 31720, "ELEMENT_SET_NO": 999, "REV_AT_EPOCH": 98412, "BSTAR": 0.00085182682, "MEAN_MOTION_DOT": 5.716e-05, "MEAN_MOTION_DDOT": 0}, "tle": {"line1": "1 31720U 99025CDT 25358.70175119  .00005716  00000+0  85183-3 0  9998", "line2": "2 31720  99.0481 271.9563 0100336  86.8005 274.4673 14.71933400984128"}}, "geometry": {"type": "Point", "coordinates": [95.79794970517808, 3.0133233622873488]}}, {"type": "Feature", "properties": {"norad_id": 31721, "name": "FENGYUN 1C DEB", "group": "fengyun-1c-debris", "lat": 11.279862741336348, "lon": -20.259809842402646, "alt_km": 1143.4781129577395, "timestamp": "2025-12-27T17:24:57.689080+00:00", "meta": {"OBJECT_NAME": "FENGYUN 1C DEB", "OBJECT_ID": "1999-025CDU", "EPOCH": "2025-12-27T05:12:25.901280", "MEAN_MOTION": 13.73791001, "ECCENTRICITY": 0.03177823, "INCLINATION": 99.7826, "RA_OF_ASC_NODE": 341.1911, "ARG_OF_PERICENTER": 146.0894, "MEAN_ANOMALY": 233.6218, "EPHEMERIS_TYPE": 0, "CLASSIFICATION_TYPE": "U", "NORAD_CAT_ID": 31721, "ELEMENT_SET_NO": 999, "REV_AT_EPOCH": 67585, "BSTAR": 0.00036345279, "MEAN_MOTION_DOT": 4.45e-06, "MEAN_MOTION_DDOT": 0}, "tle": {"line1": "1 31721U 99025CDU 25361.21696645  .00000445  00000+0  36345-3 0  9991", "line2": "2 31721  99.7826 341.1911 0317782 146.0894 233.6218 13.73791001675855"}}, "geometry": {"type": "Point", "coordinates": [-20.259809842402646, 11.279862741336348]}}, {"type": "Feature", "properties": {"norad_id": 31724, "name": "FENGYUN 1C DEB", "group": "fengyun-1c-debris", "lat": -61.75539445199434, "lon": 21.572311799492653, "alt_km": 754.7399097456837, "timestamp": "2025-12-27T17:24:57.689091+00:00", "meta": {"OBJECT_NAME": "FENGYUN 1C DEB", "OBJECT_ID": "1999-025CDX", "EPOCH": "2025-12-27T06:06:45.956448", "MEAN_MOTION": 14.49384317, "ECCENTRICITY": 0.01518185, "INCLINATION": 97.855, "RA_OF_ASC_NODE": 6.2422, "ARG_OF_PERICENTER": 197.228, "MEAN_ANOMALY": 162.3731, "EPHEMERIS_TYPE": 0, "CLASSIFICATION_TYPE": "U", "NORAD_CAT_ID": 31724, "ELEMENT_SET_NO": 999, "REV_AT_EPOCH": 64702, "BSTAR": 0.0024286273, "MEAN_MOTION_DOT": 0.00010725, "MEAN_MOTION_DDOT": 0}, "tle": {"line1": "1 31724U 99025CDX 25361.25469857  .00010725  00000+0  24286-2 0  9993", "line2": "2 31724  97.8550   6.2422 0151818 197.2280 162.3731 14.49384317647028"}}, "geometry": {"type": "Point", "coordinates": [21.572311799492653, -61.75539445199434]}}, {"type": "Feature", "properties": {"norad_id": 31725, "name": "FENGYUN 1C DEB", "group": "fengyun-1c-debris", "lat": -36.303692662165844, "lon": -137.1967202875001, "alt_km": 848.3138573867727, "timestamp": "2025-12-27T17:24:57.689101+00:00", "meta": {"OBJECT_NAME": "FENGYUN 1C DEB", "OBJECT_ID": "1999-025CDY", "EPOCH": "2025-12-26T20:56:30.468768", "MEAN_MOTION": 12.79230156, "ECCENTRICITY": 0.06942432, "INCLINATION": 99.1795, "RA_OF_ASC_NODE": 215.2811, "ARG_OF_PERICENTER": 303.2668, "MEAN_ANOMALY": 50.3745, "EPHEMERIS_TYPE": 0, "CLASSIFICATION_TYPE": "U", "NORAD_CAT_ID": 31725, "ELEMENT_SET_NO": 999, "REV_AT_EPOCH": 86662, "BSTAR": 0.0024903295, "MEAN_MOTION_DOT": 1.518e-05, "MEAN_MOTION_DDOT": 0}, "tle": {"line1": "1 31725U 99025CDY 25360.87257487  .00001518  00000+0  24903-2 0  9991", "line2": "2 31725  99.1795 215.2811 0694243 303.2668  50.3745 12.79230156866624"}}, "geometry": {"type": "Point", "coordinates": [-137.1967202875001, -36.303692662165844]}}, {"type": "Feature", "properties": {"norad_id": 31727, "name": "FENGYUN 1C DEB", "group": "fengyun-1c-debris", "lat": 11.281509117358446, "lon": 112.44168507038167, "alt_km": 763.903895296301, "timestamp": "2025-12-27T17:24:57.689112+00:00", "meta": {"OBJECT_NAME": "FENGYUN 1C DEB", "OBJECT_ID": "1999-025CEA", "EPOCH": "2025-12-25T19:17:35.957760", "MEAN_MOTION": 14.37159668, "ECCENTRICITY": 0.00328979, "INCLINATION": 98.8656, "RA_OF_ASC_NODE": 112.2465, "ARG_OF_PERICENTER": 299.956, "MEAN_ANOMALY": 213.939, "EPHEMERIS_TYPE": 0, "CLASSIFICATION_TYPE": "U", "NORAD_CAT_ID": 31727, "ELEMENT_SET_NO": 999, "REV_AT_EPOCH": 71856, "BSTAR": 0.0021323953, "MEAN_MOTION_DOT": 6.339e-05, "MEAN_MOTION_DDOT": 0}, "tle": {"line1": "1 31727U 99025CEA 25359.80388840  .00006339  00000+0  21324-2 0  9992", "line2": "2 31727  98.8656 112.2465 0032897 299.9560 213.9390 14.37159668718568"}}, "geometry": {"type": "Point", "coordinates": [112.44168507038167, 11.281509117358446]}}, {"type": "Feature", "properties": {"norad_id": 31732, "name": "FENGYUN 1C DEB", "group": "fengyun-1c-debris", "lat": -31.09940787893457, "lon": -149.39618293906693, "alt_km": 828.798906346783, "timestamp": "2025-12-27T17:24:57.689122+00:00", "meta": {"OBJECT_NAME": "FENGYUN 1C DEB", "OBJECT_ID": "1999-025CEF", "EPOCH": "2025-12-27T01:06:52.293312", "MEAN_MOTION": 14.12272374, "ECCENTRICITY": 0.00402823, "INCLINATION": 98.572, "RA_OF_ASC_NODE": 35.1745, "ARG_OF_PERICENTER": 204.242, "MEAN_ANOMALY": 155.6859, "EPHEMERIS_TYPE": 0, "CLASSIFICATION_TYPE": "U", "NORAD_CAT_ID": 31732, "ELEMENT_SET_NO": 999, "REV_AT_EPOCH": 64532, "BSTAR": 0.00037939742, "MEAN_MOTION_DOT": 6.62e-06, "MEAN_MOTION_DDOT": 0}, "tle": {"line1": "1 31732U 99025CEF 25361.04643858  .00000662  00000+0  37940-3 0  9995", "line2": "2 31732  98.5720  35.1745 0040282 204.2420 155.6859 14.12272374645326"}}, "geometry": {"type": "Point", "coordinates": [-149.39618293906693, -31.09940787893457]}}, {"type": "Feature", "properties": {"norad_id": 31734, "name": "FENGYUN 1C DEB", "group": "fengyun-1c-debris", "lat": -60.88991473839154, "lon": 9.051849394081042, "alt_km": 734.8805873488236, "timestamp": "2025-12-27T17:24:57.689132+00:00", "meta": {"OBJECT_NAME": "FENGYUN 1C DEB", "OBJECT_ID": "1999-025CEH", "EPOCH": "2025-12-17T05:38:30.357312", "MEAN_MOTION": 14.2902964, "ECCENTRICITY": 0.01035042, "INCLINATION": 98.4953, "RA_OF_ASC_NODE": 343.2584, "ARG_OF_PERICENTER": 354.3593, "MEAN_ANOMALY": 5.6416, "EPHEMERIS_TYPE": 0, "CLASSIFICATION_TYPE": "U", "NORAD_CAT_ID": 31734, "ELEMENT_SET_NO": 999, "REV_AT_EPOCH": 96515, "BSTAR": 0.00042036115, "MEAN_MOTION_DOT": 1.084e-05, "MEAN_MOTION_DDOT": 0}, "tle": {"line1": "1 31734U 99025CEH 25351.23507358  .00001084  00000+0  42036-3 0  9992", "line2": "2 31734  98.4953 343.2584 0103504 354.3593   5.6416 14.29029640965157"}}, "geometry": {"type": "Point", "coordinates": [9.051849394081042, -60.88991473839154]}}, {"type": "Feature", "properties": {"norad_id": 31735, "name": "FENGYUN 1C DEB", "group": "fengyun-1c-debris", "lat": -33.637878234335496, "lon": -80.61541784092951, "alt_km": 717.8543620097953, "timestamp": "2025-12-27T17:24:57.689142+00:00", "meta": {"OBJECT_NAME": "FENGYUN 1C DEB", "OBJECT_ID": "1999-025CEJ", "EPOCH": "2025-12-25T17:48:46.742688", "MEAN_MOTION": 14.42579033, "ECCENTRICITY": 0.00590702, "INCLINATION": 98.58, "RA_OF_ASC_NODE": 103.1547, "ARG_OF_PERICENTER": 244.7383, "MEAN_ANOMALY": 114.7677, "EPHEMERIS_TYPE": 0, "CLASSIFICATION_TYPE": "U", "NORAD_CAT_ID": 31735, "ELEMENT_SET_NO": 999, "REV_AT_EPOCH": 96852, "BSTAR": 0.00044994151, "MEAN_MOTION_DOT": 1.479e-05, "MEAN_MOTION_DDOT": 0}, "tle": {"line1": "1 31735U 99025CEJ 25359.74220767  .00001479  00000+0  44994-3 0  9996", "line2": "2 31735  98.5800 103.1547 0059070 244.7383 114.7677 14.42579033968525"}}, "geometry": {"type": "Point", "coordinates": [-80.61541784092951, -33.637878234335496]}}, {"type": "Feature", "properties": {"norad_id": 31736, "name": "FENGYUN 1C DEB", "group": "fengyun-1c-debris", "lat": 37.660789232670425, "lon": -170.0237504681049, "alt_km": 837.4112557755325, "timestamp": "2025-12-27T17:24:57.689152+00:00", "meta": {"OBJECT_NAME": "FENGYUN 1C DEB", "OBJECT_ID": "1999-025CEK", "EPOCH": "2025-12-23T17:39:26.129376", "MEAN_MOTION": 14.14190163, "ECCENTRICITY": 0.0011448, "INCLINATION": 98.6782, "RA_OF_ASC_NODE": 359.3318, "ARG_OF_PERICENTER": 207.2701, "MEAN_ANOMALY": 152.7873, "EPHEMERIS_TYPE": 0, "CLASSIFICATION_TYPE": "U", "NORAD_CAT_ID": 31736, "ELEMENT_SET_NO": 999, "REV_AT_EPOCH": 64220, "BSTAR": 0.00013853651, "MEAN_MOTION_DOT": 2.21e-06, "MEAN_MOTION_DDOT": 0}, "tle": {"line1": "1 31736U 99025CEK 25357.73571909  .00000221  00000+0  13854-3 0  9996", "line2": "2 31736  98.6782 359.3318 0011448 207.2701 152.7873 14.14190163642208"}}, "geometry": {"type": "Point", "coordinates": [-170.0237504681049, 37.660789232670425]}}]}